[{"OBJECT_NAME":"PELICAN-4","OBJECT_ID":"2025-188B","EPOCH":"2026-04-27T03:27:39.718080","MEAN_MOTION":15.40586175,"ECCENTRICITY":0.000426,"INCLINATION":97.1983,"RA_OF_ASC_NODE":194.2143,"ARG_OF_PERICENTER":142.1086,"MEAN_ANOMALY":218.0461,"EPHEMERIS_TYPE":0,"CLASSIFICATION_TYPE":"U","NORAD_CAT_ID":65316,"ELEMENT_SET_NO":999,"REV_AT_EPOCH":3745,"BSTAR":3.5679e-5,"MEAN_MOTION_DOT":1.37e-5,"MEAN_MOTION_DDOT":0},{"OBJECT_NAME":"PELICAN-5","OBJECT_ID":"2025-276B","EPOCH":"2026-04-27T02:15:51.799392","MEAN_MOTION":15.28485967,"ECCENTRICITY":0.0004584,"INCLINATION":97.4165,"RA_OF_ASC_NODE":192.2596,"ARG_OF_PERICENTER":145.6522,"MEAN_ANOMALY":214.5015,"EPHEMERIS_TYPE":0,"CLASSIFICATION_TYPE":"U","NORAD_CAT_ID":66667,"ELEMENT_SET_NO":999,"REV_AT_EPOCH":2271,"BSTAR":0.00019341,"MEAN_MOTION_DOT":5.287e-5,"MEAN_MOTION_DDOT":0},{"OBJECT_NAME":"PELICAN-6","OBJECT_ID":"2025-276AP","EPOCH":"2026-04-27T02:18:31.662720","MEAN_MOTION":15.28866903,"ECCENTRICITY":0.0002731,"INCLINATION":97.416,"RA_OF_ASC_NODE":192.4201,"ARG_OF_PERICENTER":60.2867,"MEAN_ANOMALY":299.8644,"EPHEMERIS_TYPE":0,"CLASSIFICATION_TYPE":"U","NORAD_CAT_ID":66703,"ELEMENT_SET_NO":999,"REV_AT_EPOCH":2272,"BSTAR":0.00020102,"MEAN_MOTION_DOT":5.562e-5,"MEAN_MOTION_DDOT":0},{"OBJECT_NAME":"FLOCK 4H-1","OBJECT_ID":"2025-276AQ","EPOCH":"2026-04-26T18:35:37.566240","MEAN_MOTION":15.19961536,"ECCENTRICITY":0.00034854,"INCLINATION":97.4194,"RA_OF_ASC_NODE":191.2918,"ARG_OF_PERICENTER":121.9995,"MEAN_ANOMALY":238.1579,"EPHEMERIS_TYPE":0,"CLASSIFICATION_TYPE":"U","NORAD_CAT_ID":66704,"ELEMENT_SET_NO":999,"REV_AT_EPOCH":2262,"BSTAR":0.00035727066,"MEAN_MOTION_DOT":7.622e-5,"MEAN_MOTION_DDOT":0},{"OBJECT_NAME":"FLOCK 4H-2","OBJECT_ID":"2025-276AR","EPOCH":"2026-04-27T03:45:57.100032","MEAN_MOTION":15.20227827,"ECCENTRICITY":0.0002705,"INCLINATION":97.419,"RA_OF_ASC_NODE":191.6895,"ARG_OF_PERICENTER":119.3454,"MEAN_ANOMALY":240.8052,"EPHEMERIS_TYPE":0,"CLASSIFICATION_TYPE":"U","NORAD_CAT_ID":66705,"ELEMENT_SET_NO":999,"REV_AT_EPOCH":2268,"BSTAR":0.00040469,"MEAN_MOTION_DOT":8.71e-5,"MEAN_MOTION_DDOT":0},{"OBJECT_NAME":"FLOCK 4H-3","OBJECT_ID":"2025-276AS","EPOCH":"2026-04-27T04:00:55.184832","MEAN_MOTION":15.19352378,"ECCENTRICITY":0.0004652,"INCLINATION":97.4258,"RA_OF_ASC_NODE":191.6575,"ARG_OF_PERICENTER":159.7596,"MEAN_ANOMALY":200.3824,"EPHEMERIS_TYPE":0,"CLASSIFICATION_TYPE":"U","NORAD_CAT_ID":66706,"ELEMENT_SET_NO":999,"REV_AT_EPOCH":2267,"BSTAR":0.00040075,"MEAN_MOTION_DOT":8.409e-5,"MEAN_MOTION_DDOT":0},{"OBJECT_NAME":"FLOCK 4H-4","OBJECT_ID":"2025-276AT","EPOCH":"2026-04-27T04:35:46.439808","MEAN_MOTION":15.19110426,"ECCENTRICITY":0.0005153,"INCLINATION":97.4242,"RA_OF_ASC_NODE":191.5931,"ARG_OF_PERICENTER":162.6579,"MEAN_ANOMALY":197.4833,"EPHEMERIS_TYPE":0,"CLASSIFICATION_TYPE":"U","NORAD_CAT_ID":66707,"ELEMENT_SET_NO":999,"REV_AT_EPOCH":2267,"BSTAR":0.00036963,"MEAN_MOTION_DOT":7.696e-5,"MEAN_MOTION_DDOT":0},{"OBJECT_NAME":"FLOCK 4H-5","OBJECT_ID":"2025-276AU","EPOCH":"2026-04-27T03:57:08.643168","MEAN_MOTION":15.20020879,"ECCENTRICITY":0.0002218,"INCLINATION":97.4194,"RA_OF_ASC_NODE":191.6913,"ARG_OF_PERICENTER":115.3717,"MEAN_ANOMALY":244.7748,"EPHEMERIS_TYPE":0,"CLASSIFICATION_TYPE":"U","NORAD_CAT_ID":66708,"ELEMENT_SET_NO":999,"REV_AT_EPOCH":2268,"BSTAR":0.00040778,"MEAN_MOTION_DOT":8.724e-5,"MEAN_MOTION_DDOT":0},{"OBJECT_NAME":"FLOCK 4H-6","OBJECT_ID":"2025-276AV","EPOCH":"2026-04-27T04:39:38.970720","MEAN_MOTION":15.19684681,"ECCENTRICITY":0.0004465,"INCLINATION":97.4245,"RA_OF_ASC_NODE":191.7491,"ARG_OF_PERICENTER":134.8009,"MEAN_ANOMALY":225.359,"EPHEMERIS_TYPE":0,"CLASSIFICATION_TYPE":"U","NORAD_CAT_ID":66709,"ELEMENT_SET_NO":999,"REV_AT_EPOCH":2268,"BSTAR":0.00034206,"MEAN_MOTION_DOT":7.236e-5,"MEAN_MOTION_DDOT":0},{"OBJECT_NAME":"FLOCK 4H-7","OBJECT_ID":"2025-276AW","EPOCH":"2026-04-26T18:26:15.795168","MEAN_MOTION":15.19422699,"ECCENTRICITY":0.00024527,"INCLINATION":97.4202,"RA_OF_ASC_NODE":191.1606,"ARG_OF_PERICENTER":169.0472,"MEAN_ANOMALY":191.0816,"EPHEMERIS_TYPE":0,"CLASSIFICATION_TYPE":"U","NORAD_CAT_ID":66710,"ELEMENT_SET_NO":999,"REV_AT_EPOCH":2261,"BSTAR":0.00037655726,"MEAN_MOTION_DOT":7.912e-5,"MEAN_MOTION_DDOT":0},{"OBJECT_NAME":"FLOCK 4H-8","OBJECT_ID":"2025-276AX","EPOCH":"2026-04-27T02:14:22.192224","MEAN_MOTION":15.19506655,"ECCENTRICITY":0.0003841,"INCLINATION":97.4243,"RA_OF_ASC_NODE":191.577,"ARG_OF_PERICENTER":169.3877,"MEAN_ANOMALY":190.7439,"EPHEMERIS_TYPE":0,"CLASSIFICATION_TYPE":"U","NORAD_CAT_ID":66711,"ELEMENT_SET_NO":999,"REV_AT_EPOCH":2266,"BSTAR":0.00036607,"MEAN_MOTION_DOT":7.709e-5,"MEAN_MOTION_DDOT":0},{"OBJECT_NAME":"FLOCK 4H-9","OBJECT_ID":"2025-276AY","EPOCH":"2026-04-27T04:31:16.319712","MEAN_MOTION":15.19804867,"ECCENTRICITY":0.0004459,"INCLINATION":97.4235,"RA_OF_ASC_NODE":191.7395,"ARG_OF_PERICENTER":140.4682,"MEAN_ANOMALY":219.6879,"EPHEMERIS_TYPE":0,"CLASSIFICATION_TYPE":"U","NORAD_CAT_ID":66712,"ELEMENT_SET_NO":999,"REV_AT_EPOCH":2268,"BSTAR":0.00035568,"MEAN_MOTION_DOT":7.554e-5,"MEAN_MOTION_DDOT":0},{"OBJECT_NAME":"FLOCK 4H-10","OBJECT_ID":"2025-276AZ","EPOCH":"2026-04-27T04:22:06.593664","MEAN_MOTION":15.19233769,"ECCENTRICITY":0.0005103,"INCLINATION":97.4209,"RA_OF_ASC_NODE":191.5401,"ARG_OF_PERICENTER":162.9061,"MEAN_ANOMALY":197.2347,"EPHEMERIS_TYPE":0,"CLASSIFICATION_TYPE":"U","NORAD_CAT_ID":66713,"ELEMENT_SET_NO":999,"REV_AT_EPOCH":2267,"BSTAR":0.0003578,"MEAN_MOTION_DOT":7.474e-5,"MEAN_MOTION_DDOT":0},{"OBJECT_NAME":"FLOCK 4H-11","OBJECT_ID":"2025-276BA","EPOCH":"2026-04-27T05:02:44.532096","MEAN_MOTION":15.21241713,"ECCENTRICITY":0.000361,"INCLINATION":97.4221,"RA_OF_ASC_NODE":191.8424,"ARG_OF_PERICENTER":167.0025,"MEAN_ANOMALY":193.1305,"EPHEMERIS_TYPE":0,"CLASSIFICATION_TYPE":"U","NORAD_CAT_ID":66714,"ELEMENT_SET_NO":999,"REV_AT_EPOCH":2269,"BSTAR":0.00083835,"MEAN_MOTION_DOT":0.00018687,"MEAN_MOTION_DDOT":0},{"OBJECT_NAME":"FLOCK 4H-12","OBJECT_ID":"2025-276BB","EPOCH":"2026-04-27T04:15:41.336064","MEAN_MOTION":15.19848296,"ECCENTRICITY":0.0003544,"INCLINATION":97.4205,"RA_OF_ASC_NODE":191.6876,"ARG_OF_PERICENTER":125.8229,"MEAN_ANOMALY":234.3336,"EPHEMERIS_TYPE":0,"CLASSIFICATION_TYPE":"U","NORAD_CAT_ID":66715,"ELEMENT_SET_NO":999,"REV_AT_EPOCH":2299,"BSTAR":0.00034612,"MEAN_MOTION_DOT":7.357e-5,"MEAN_MOTION_DDOT":0},{"OBJECT_NAME":"FLOCK 4H-13","OBJECT_ID":"2025-276BC","EPOCH":"2026-04-27T02:12:34.860960","MEAN_MOTION":15.20115457,"ECCENTRICITY":0.0002867,"INCLINATION":97.424,"RA_OF_ASC_NODE":191.7206,"ARG_OF_PERICENTER":110.245,"MEAN_ANOMALY":249.9093,"EPHEMERIS_TYPE":0,"CLASSIFICATION_TYPE":"U","NORAD_CAT_ID":66716,"ELEMENT_SET_NO":999,"REV_AT_EPOCH":2267,"BSTAR":0.00035679,"MEAN_MOTION_DOT":7.645e-5,"MEAN_MOTION_DDOT":0},{"OBJECT_NAME":"FLOCK 4H-14","OBJECT_ID":"2025-276BD","EPOCH":"2026-04-27T04:52:11.569152","MEAN_MOTION":15.20420234,"ECCENTRICITY":0.0002529,"INCLINATION":97.4223,"RA_OF_ASC_NODE":191.8496,"ARG_OF_PERICENTER":107.1219,"MEAN_ANOMALY":253.0293,"EPHEMERIS_TYPE":0,"CLASSIFICATION_TYPE":"U","NORAD_CAT_ID":66717,"ELEMENT_SET_NO":999,"REV_AT_EPOCH":2194,"BSTAR":0.00038188,"MEAN_MOTION_DOT":8.261e-5,"MEAN_MOTION_DDOT":0}]
